{
  "norad_id": 64141,
  "name": "STARLINK-34054",
  "history": [
    {
      "epoch": "2026-05-02T07:15:45.853056Z",
      "apogee_km": 484.0249251705209,
      "perigee_km": 482.05713931087485,
      "latitude_deg": 1.1430031507402922e-05,
      "longitude_deg": 165.85035969389256,
      "height_km": 482.73662939256747,
      "semi_major_axis_km": 6861.178032240698,
      "eccentricity": 0.0001434,
      "inclination_deg": 43.001,
      "raan_deg": 135.014,
      "arg_perigee_deg": 274.7369,
      "mean_anomaly_deg": 85.3319,
      "mean_motion_rev_day": 15.27582693
    },
    {
      "epoch": "2026-05-03T11:30:34.881696Z",
      "apogee_km": 484.223448191402,
      "perigee_km": 481.78980054783824,
      "latitude_deg": -2.051995392771953e-06,
      "longitude_deg": 94.33499520412629,
      "height_km": 483.67767119352857,
      "semi_major_axis_km": 6861.14362436962,
      "eccentricity": 0.00017735,
      "inclination_deg": 42.9987,
      "raan_deg": 128.363,
      "arg_perigee_deg": 222.6637,
      "mean_anomaly_deg": 137.4077,
      "mean_motion_rev_day": 15.27594184
    },
    {
      "epoch": "2026-05-04T06:20:27.779424Z",
      "apogee_km": 483.61644239066754,
      "perigee_km": 482.39035660127774,
      "latitude_deg": 1.7604273678033845e-05,
      "longitude_deg": 166.66102996487604,
      "height_km": 483.271769377071,
      "semi_major_axis_km": 6861.140399495972,
      "eccentricity": 8.935e-05,
      "inclination_deg": 42.9991,
      "raan_deg": 123.9328,
      "arg_perigee_deg": 216.5293,
      "mean_anomaly_deg": 143.5498,
      "mean_motion_rev_day": 15.27595261
    },
    {
      "epoch": "2026-05-05T10:35:15.766080Z",
      "apogee_km": 484.1626945080552,
      "perigee_km": 481.69957104838795,
      "latitude_deg": -2.8226781704861222e-05,
      "longitude_deg": 95.15738313238359,
      "height_km": 482.6253004458091,
      "semi_major_axis_km": 6861.068132778221,
      "eccentricity": 0.0001795,
      "inclination_deg": 43.0025,
      "raan_deg": 117.2892,
      "arg_perigee_deg": 273.8707,
      "mean_anomaly_deg": 86.1939,
      "mean_motion_rev_day": 15.27619396
    },
    {
      "epoch": "2026-05-06T10:07:37.307712Z",
      "apogee_km": 485.0126238814746,
      "perigee_km": 481.1016060120719,
      "latitude_deg": -1.864561956476283e-05,
      "longitude_deg": 95.56620738480926,
      "height_km": 482.2445256682362,
      "semi_major_axis_km": 6861.194114946773,
      "eccentricity": 0.00028501,
      "inclination_deg": 43.0065,
      "raan_deg": 111.7545,
      "arg_perigee_deg": 287.5934,
      "mean_anomaly_deg": 72.4606,
      "mean_motion_rev_day": 15.27577322
    },
    {
      "epoch": "2026-05-07T09:39:59.258016Z",
      "apogee_km": 484.18888949444226,
      "perigee_km": 481.94801979295517,
      "latitude_deg": -4.5133443220727975e-07,
      "longitude_deg": 95.96513352106538,
      "height_km": 483.0601262592781,
      "semi_major_axis_km": 6861.205454643698,
      "eccentricity": 0.0001633,
      "inclination_deg": 43.0023,
      "raan_deg": 106.2116,
      "arg_perigee_deg": 258.9589,
      "mean_anomaly_deg": 101.1079,
      "mean_motion_rev_day": 15.27573535
    },
    {
      "epoch": "2026-05-08T15:28:57.218016Z",
      "apogee_km": 484.74222780132004,
      "perigee_km": 481.24991106897687,
      "latitude_deg": 1.2476524962466588e-05,
      "longitude_deg": 0.48473970694533053,
      "height_km": 482.53150163118136,
      "semi_major_axis_km": 6861.133069435148,
      "eccentricity": 0.0002545,
      "inclination_deg": 43.0042,
      "raan_deg": 99.1972,
      "arg_perigee_deg": 277.9865,
      "mean_anomaly_deg": 82.0698,
      "mean_motion_rev_day": 15.27597709
    },
    {
      "epoch": "2026-05-09T08:44:41.040096Z",
      "apogee_km": 484.73460444588,
      "perigee_km": 481.36576153903115,
      "latitude_deg": 1.9576496388312795e-05,
      "longitude_deg": 96.77782131375841,
      "height_km": 483.27937950271206,
      "semi_major_axis_km": 6861.187182992456,
      "eccentricity": 0.0002455,
      "inclination_deg": 43.0046,
      "raan_deg": 95.1318,
      "arg_perigee_deg": 254.4587,
      "mean_anomaly_deg": 105.5994,
      "mean_motion_rev_day": 15.27579637
    },
    {
      "epoch": "2026-05-10T14:33:39.501216Z",
      "apogee_km": 484.2979055467722,
      "perigee_km": 481.73457869551476,
      "latitude_deg": -4.057220160486226e-06,
      "longitude_deg": 1.2949968156204301,
      "height_km": 482.94214569926726,
      "semi_major_axis_km": 6861.153242121143,
      "eccentricity": 0.0001868,
      "inclination_deg": 43.0029,
      "raan_deg": 88.1171,
      "arg_perigee_deg": 263.3448,
      "mean_anomaly_deg": 96.7191,
      "mean_motion_rev_day": 15.27590972
    },
    {
      "epoch": "2026-05-11T20:22:37.265088Z",
      "apogee_km": 484.1819325825145,
      "perigee_km": 481.80249297152295,
      "latitude_deg": -4.953756955169882e-06,
      "longitude_deg": -94.18638891499475,
      "height_km": 482.8154657162199,
      "semi_major_axis_km": 6861.129212777018,
      "eccentricity": 0.0001734,
      "inclination_deg": 43.0008,
      "raan_deg": 81.1009,
      "arg_perigee_deg": 267.7744,
      "mean_anomaly_deg": 92.2909,
      "mean_motion_rev_day": 15.27598997
    },
    {
      "epoch": "2026-05-12T13:38:20.921280Z",
      "apogee_km": 483.1707819594967,
      "perigee_km": 482.8853574925961,
      "latitude_deg": -3.455960717628721e-05,
      "longitude_deg": 2.111448631105045,
      "height_km": 482.69289668058303,
      "semi_major_axis_km": 6861.165069726047,
      "eccentricity": 2.08e-05,
      "inclination_deg": 42.9991,
      "raan_deg": 77.0396,
      "arg_perigee_deg": 320.8248,
      "mean_anomaly_deg": 39.2588,
      "mean_motion_rev_day": 15.27587022
    },
    {
      "epoch": "2026-05-13T13:10:41.197152Z",
      "apogee_km": 484.2978434822717,
      "perigee_km": 481.7592122369624,
      "latitude_deg": 3.122079734306021e-05,
      "longitude_deg": 2.5200255967296576,
      "height_km": 482.68956381174274,
      "semi_major_axis_km": 6861.165527859616,
      "eccentricity": 0.000185,
      "inclination_deg": 43.0043,
      "raan_deg": 71.4993,
      "arg_perigee_deg": 275.2666,
      "mean_anomaly_deg": 84.7975,
      "mean_motion_rev_day": 15.27586869
    },
    {
      "epoch": "2026-05-14T04:52:15.139200Z",
      "apogee_km": 484.1363338033789,
      "perigee_km": 481.934034755669,
      "latitude_deg": 3.160439058436048e-05,
      "longitude_deg": 122.78992232052744,
      "height_km": 482.9639131246851,
      "semi_major_axis_km": 6861.172184279523,
      "eccentricity": 0.00016049,
      "inclination_deg": 43.0047,
      "raan_deg": 67.8051,
      "arg_perigee_deg": 262.0986,
      "mean_anomaly_deg": 97.9684,
      "mean_motion_rev_day": 15.27584646
    },
    {
      "epoch": "2026-05-15T04:24:35.590464Z",
      "apogee_km": 483.995721330406,
      "perigee_km": 482.01930004265887,
      "latitude_deg": 1.875483824077268e-05,
      "longitude_deg": 123.19978206916065,
      "height_km": 482.8147928353452,
      "semi_major_axis_km": 6861.144510686532,
      "eccentricity": 0.00014403,
      "inclination_deg": 43.0057,
      "raan_deg": 62.2669,
      "arg_perigee_deg": 268.265,
      "mean_anomaly_deg": 91.8037,
      "mean_motion_rev_day": 15.27593888
    },
    {
      "epoch": "2026-05-16T19:38:29.965632Z",
      "apogee_km": 483.6989216229458,
      "perigee_km": 482.2951336008964,
      "latitude_deg": 3.6216235664237386e-05,
      "longitude_deg": -116.11775643082876,
      "height_km": 482.8662476999501,
      "semi_major_axis_km": 6861.134027611921,
      "eccentricity": 0.0001023,
      "inclination_deg": 43.0036,
      "raan_deg": 53.0371,
      "arg_perigee_deg": 262.43,
      "mean_anomaly_deg": 97.6436,
      "mean_motion_rev_day": 15.27597389
    }
  ]
}